[{"OBJECT_NAME":"STARLINK-36073","OBJECT_ID":"2025-280Z","EPOCH":"2026-03-09T22:45:29.195712","MEAN_MOTION":14.98332199,"ECCENTRICITY":0.00021093,"INCLINATION":70.0025,"RA_OF_ASC_NODE":333.8389,"ARG_OF_PERICENTER":275.8635,"MEAN_ANOMALY":84.2284,"EPHEMERIS_TYPE":0,"CLASSIFICATION_TYPE":"U","NORAD_CAT_ID":66844,"ELEMENT_SET_NO":999,"REV_AT_EPOCH":1608,"BSTAR":0.00024127367,"MEAN_MOTION_DOT":2.787e-5,"MEAN_MOTION_DDOT":0},{"OBJECT_NAME":"CZ-6A DEB","OBJECT_ID":"2022-151QF","EPOCH":"2026-03-08T03:18:15.836256","MEAN_MOTION":14.86025729,"ECCENTRICITY":0.00611616,"INCLINATION":98.6168,"RA_OF_ASC_NODE":140.6535,"ARG_OF_PERICENTER":185.9517,"MEAN_ANOMALY":174.0977,"EPHEMERIS_TYPE":0,"CLASSIFICATION_TYPE":"U","NORAD_CAT_ID":54894,"ELEMENT_SET_NO":999,"REV_AT_EPOCH":17291,"BSTAR":0.0053316953,"MEAN_MOTION_DOT":0.00048472,"MEAN_MOTION_DDOT":0}]
